[{"OBJECT_NAME":"STARLINK-1524","OBJECT_ID":"2020-055W","EPOCH":"2026-03-09T09:25:18.503328","MEAN_MOTION":15.29379865,"ECCENTRICITY":0.00014693,"INCLINATION":53.1566,"RA_OF_ASC_NODE":115.2043,"ARG_OF_PERICENTER":112.6811,"MEAN_ANOMALY":247.4344,"EPHEMERIS_TYPE":0,"CLASSIFICATION_TYPE":"U","NORAD_CAT_ID":46047,"ELEMENT_SET_NO":999,"REV_AT_EPOCH":30902,"BSTAR":0.00029457817,"MEAN_MOTION_DOT":8.16e-5,"MEAN_MOTION_DDOT":0},{"OBJECT_NAME":"TSX-5","OBJECT_ID":"2000-030A","EPOCH":"2026-03-09T21:12:25.441056","MEAN_MOTION":14.57965705,"ECCENTRICITY":0.04447223,"INCLINATION":68.9141,"RA_OF_ASC_NODE":228.535,"ARG_OF_PERICENTER":180.8093,"MEAN_ANOMALY":179.2379,"EPHEMERIS_TYPE":0,"CLASSIFICATION_TYPE":"U","NORAD_CAT_ID":26374,"ELEMENT_SET_NO":999,"REV_AT_EPOCH":30806,"BSTAR":0.0016357838,"MEAN_MOTION_DOT":0.00031184,"MEAN_MOTION_DDOT":0}]
